[{"OBJECT_NAME":"NOAA 1 [-]","OBJECT_ID":"1970-106A","EPOCH":"2022-08-16T11:09:50.097888","MEAN_MOTION":12.54006937,"ECCENTRICITY":0.0031554,"INCLINATION":101.5527,"RA_OF_ASC_NODE":290.7535,"ARG_OF_PERICENTER":204.6964,"MEAN_ANOMALY":166.1631,"EPHEMERIS_TYPE":0,"CLASSIFICATION_TYPE":"U","NORAD_CAT_ID":4793,"ELEMENT_SET_NO":999,"REV_AT_EPOCH":36511,"BSTAR":6.5604e-5,"MEAN_MOTION_DOT":-3.3e-7,"MEAN_MOTION_DDOT":0},{"OBJECT_NAME":"NOAA 2 (ITOS-D) [-]","OBJECT_ID":"1972-082A","EPOCH":"2022-08-16T18:16:24.000960","MEAN_MOTION":12.53150378,"ECCENTRICITY":0.0003928,"INCLINATION":101.9571,"RA_OF_ASC_NODE":211.3793,"ARG_OF_PERICENTER":326.0683,"MEAN_ANOMALY":208.5447,"EPHEMERIS_TYPE":0,"CLASSIFICATION_TYPE":"U","NORAD_CAT_ID":6235,"ELEMENT_SET_NO":999,"REV_AT_EPOCH":27952,"BSTAR":8.0423e-5,"MEAN_MOTION_DOT":-3.3e-7,"MEAN_MOTION_DDOT":0},{"OBJECT_NAME":"NOAA 3 [-]","OBJECT_ID":"1973-086A","EPOCH":"2022-08-16T17:47:32.652960","MEAN_MOTION":12.40347513,"ECCENTRICITY":0.0006296,"INCLINATION":102.211,"RA_OF_ASC_NODE":210.463,"ARG_OF_PERICENTER":176.1576,"MEAN_ANOMALY":357.2971,"EPHEMERIS_TYPE":0,"CLASSIFICATION_TYPE":"U","NORAD_CAT_ID":6920,"ELEMENT_SET_NO":999,"REV_AT_EPOCH":20826,"BSTAR":4.8767e-5,"MEAN_MOTION_DOT":-3.9e-7,"MEAN_MOTION_DDOT":0},{"OBJECT_NAME":"NOAA 4 [-]","OBJECT_ID":"1974-089A","EPOCH":"2022-08-16T17:45:47.290752","MEAN_MOTION":12.53159213,"ECCENTRICITY":0.0009102,"INCLINATION":101.9174,"RA_OF_ASC_NODE":208.5626,"ARG_OF_PERICENTER":351.698,"MEAN_ANOMALY":182.0193,"EPHEMERIS_TYPE":0,"CLASSIFICATION_TYPE":"U","NORAD_CAT_ID":7529,"ELEMENT_SET_NO":999,"REV_AT_EPOCH":18409,"BSTAR":6.2571e-5,"MEAN_MOTION_DOT":-3.6e-7,"MEAN_MOTION_DDOT":0},{"OBJECT_NAME":"NOAA 5 [-]","OBJECT_ID":"1976-077A","EPOCH":"2022-08-16T17:12:31.457664","MEAN_MOTION":12.3777295,"ECCENTRICITY":0.0010311,"INCLINATION":102.1023,"RA_OF_ASC_NODE":196.0733,"ARG_OF_PERICENTER":29.3718,"MEAN_ANOMALY":145.9611,"EPHEMERIS_TYPE":0,"CLASSIFICATION_TYPE":"U","NORAD_CAT_ID":9057,"ELEMENT_SET_NO":999,"REV_AT_EPOCH":8119,"BSTAR":0.00025274,"MEAN_MOTION_DOT":-1.2e-7,"MEAN_MOTION_DDOT":0},{"OBJECT_NAME":"TIROS N [-]","OBJECT_ID":"1978-096A","EPOCH":"2022-08-16T09:04:23.756736","MEAN_MOTION":14.18405178,"ECCENTRICITY":0.0010017,"INCLINATION":98.6312,"RA_OF_ASC_NODE":280.5203,"ARG_OF_PERICENTER":336.7149,"MEAN_ANOMALY":23.3572,"EPHEMERIS_TYPE":0,"CLASSIFICATION_TYPE":"U","NORAD_CAT_ID":11060,"ELEMENT_SET_NO":999,"REV_AT_EPOCH":48010,"BSTAR":5.42e-5,"MEAN_MOTION_DOT":6.9e-7,"MEAN_MOTION_DDOT":0},{"OBJECT_NAME":"NOAA 6 [-]","OBJECT_ID":"1979-057A","EPOCH":"2022-08-17T11:10:13.213344","MEAN_MOTION":14.33785146,"ECCENTRICITY":0.0011528,"INCLINATION":98.6643,"RA_OF_ASC_NODE":240.4155,"ARG_OF_PERICENTER":80.1425,"MEAN_ANOMALY":280.106,"EPHEMERIS_TYPE":0,"CLASSIFICATION_TYPE":"U","NORAD_CAT_ID":11416,"ELEMENT_SET_NO":999,"REV_AT_EPOCH":25047,"BSTAR":7.8747e-5,"MEAN_MOTION_DOT":1.74e-6,"MEAN_MOTION_DDOT":0},{"OBJECT_NAME":"NOAA 7 [-]","OBJECT_ID":"1981-059A","EPOCH":"2022-08-16T09:02:38.809248","MEAN_MOTION":14.17340043,"ECCENTRICITY":0.0010646,"INCLINATION":98.9949,"RA_OF_ASC_NODE":273.5245,"ARG_OF_PERICENTER":308.7559,"MEAN_ANOMALY":51.2663,"EPHEMERIS_TYPE":0,"CLASSIFICATION_TYPE":"U","NORAD_CAT_ID":12553,"ELEMENT_SET_NO":999,"REV_AT_EPOCH":12628,"BSTAR":2.7603e-5,"MEAN_MOTION_DOT":1.0e-7,"MEAN_MOTION_DDOT":0},{"OBJECT_NAME":"NOAA 8 [-]","OBJECT_ID":"1983-022A","EPOCH":"2022-08-16T17:17:27.380256","MEAN_MOTION":14.28823416,"ECCENTRICITY":0.0015837,"INCLINATION":98.69,"RA_OF_ASC_NODE":219.0382,"ARG_OF_PERICENTER":36.8969,"MEAN_ANOMALY":323.3299,"EPHEMERIS_TYPE":0,"CLASSIFICATION_TYPE":"U","NORAD_CAT_ID":13923,"ELEMENT_SET_NO":999,"REV_AT_EPOCH":5101,"BSTAR":4.4215e-5,"MEAN_MOTION_DOT":6.7e-7,"MEAN_MOTION_DDOT":0},{"OBJECT_NAME":"NOAA 9 [-]","OBJECT_ID":"1984-123A","EPOCH":"2022-08-17T12:03:37.854144","MEAN_MOTION":14.16215751,"ECCENTRICITY":0.0014846,"INCLINATION":99.0501,"RA_OF_ASC_NODE":202.8594,"ARG_OF_PERICENTER":356.7875,"MEAN_ANOMALY":112.112,"EPHEMERIS_TYPE":0,"CLASSIFICATION_TYPE":"U","NORAD_CAT_ID":15427,"ELEMENT_SET_NO":999,"REV_AT_EPOCH":94548,"BSTAR":5.5272e-5,"MEAN_MOTION_DOT":6.3e-7,"MEAN_MOTION_DDOT":0},{"OBJECT_NAME":"NOAA 10 [-]","OBJECT_ID":"1986-073A","EPOCH":"2022-08-17T11:34:28.928928","MEAN_MOTION":14.28213822,"ECCENTRICITY":0.0013082,"INCLINATION":98.5717,"RA_OF_ASC_NODE":214.5239,"ARG_OF_PERICENTER":130.0045,"MEAN_ANOMALY":342.0652,"EPHEMERIS_TYPE":0,"CLASSIFICATION_TYPE":"U","NORAD_CAT_ID":16969,"ELEMENT_SET_NO":999,"REV_AT_EPOCH":86980,"BSTAR":4.1542e-5,"MEAN_MOTION_DOT":6.0e-7,"MEAN_MOTION_DDOT":0},{"OBJECT_NAME":"NOAA 11 [-]","OBJECT_ID":"1988-089A","EPOCH":"2022-08-16T17:11:54.886272","MEAN_MOTION":14.1531793,"ECCENTRICITY":0.0011394,"INCLINATION":98.428,"RA_OF_ASC_NODE":214.4981,"ARG_OF_PERICENTER":11.2428,"MEAN_ANOMALY":348.9,"EPHEMERIS_TYPE":0,"CLASSIFICATION_TYPE":"U","NORAD_CAT_ID":19531,"ELEMENT_SET_NO":999,"REV_AT_EPOCH":74934,"BSTAR":2.9654e-5,"MEAN_MOTION_DOT":1.7e-7,"MEAN_MOTION_DDOT":0},{"OBJECT_NAME":"NOAA 12 [-]","OBJECT_ID":"1991-032A","EPOCH":"2022-08-16T21:43:50.287296","MEAN_MOTION":14.26004745,"ECCENTRICITY":0.0014041,"INCLINATION":98.5163,"RA_OF_ASC_NODE":227.0381,"ARG_OF_PERICENTER":157.9159,"MEAN_ANOMALY":202.2629,"EPHEMERIS_TYPE":0,"CLASSIFICATION_TYPE":"U","NORAD_CAT_ID":21263,"ELEMENT_SET_NO":999,"REV_AT_EPOCH":62534,"BSTAR":2.9921e-5,"MEAN_MOTION_DOT":2.9e-7,"MEAN_MOTION_DDOT":0},{"OBJECT_NAME":"NOAA 13 [-]","OBJECT_ID":"1993-050A","EPOCH":"2022-08-17T10:06:52.800480","MEAN_MOTION":14.12855137,"ECCENTRICITY":0.0009736,"INCLINATION":98.509,"RA_OF_ASC_NODE":206.1951,"ARG_OF_PERICENTER":161.9343,"MEAN_ANOMALY":198.2177,"EPHEMERIS_TYPE":0,"CLASSIFICATION_TYPE":"U","NORAD_CAT_ID":22739,"ELEMENT_SET_NO":999,"REV_AT_EPOCH":49590,"BSTAR":5.6419e-5,"MEAN_MOTION_DOT":6.4e-7,"MEAN_MOTION_DDOT":0},{"OBJECT_NAME":"NOAA 14 [-]","OBJECT_ID":"1994-089A","EPOCH":"2022-08-16T20:02:14.633376","MEAN_MOTION":14.14204997,"ECCENTRICITY":0.0010142,"INCLINATION":98.4458,"RA_OF_ASC_NODE":252.2674,"ARG_OF_PERICENTER":145.1122,"MEAN_ANOMALY":215.0719,"EPHEMERIS_TYPE":0,"CLASSIFICATION_TYPE":"U","NORAD_CAT_ID":23455,"ELEMENT_SET_NO":999,"REV_AT_EPOCH":42524,"BSTAR":3.072e-5,"MEAN_MOTION_DOT":1.8e-7,"MEAN_MOTION_DDOT":0},{"OBJECT_NAME":"NOAA 15 [B]","OBJECT_ID":"1998-030A","EPOCH":"2022-08-17T12:40:26.693472","MEAN_MOTION":14.26162005,"ECCENTRICITY":0.0011472,"INCLINATION":98.6413,"RA_OF_ASC_NODE":258.2558,"ARG_OF_PERICENTER":117.2157,"MEAN_ANOMALY":243.0194,"EPHEMERIS_TYPE":0,"CLASSIFICATION_TYPE":"U","NORAD_CAT_ID":25338,"ELEMENT_SET_NO":999,"REV_AT_EPOCH":26197,"BSTAR":7.4277e-5,"MEAN_MOTION_DOT":1.34e-6,"MEAN_MOTION_DDOT":0},{"OBJECT_NAME":"NOAA 16 [-]","OBJECT_ID":"2000-055A","EPOCH":"2022-08-16T20:32:07.482624","MEAN_MOTION":14.13338477,"ECCENTRICITY":0.0010376,"INCLINATION":98.632,"RA_OF_ASC_NODE":285.6608,"ARG_OF_PERICENTER":359.8545,"MEAN_ANOMALY":0.2624,"EPHEMERIS_TYPE":0,"CLASSIFICATION_TYPE":"U","NORAD_CAT_ID":26536,"ELEMENT_SET_NO":999,"REV_AT_EPOCH":42588,"BSTAR":2.9627e-5,"MEAN_MOTION_DOT":1.3e-7,"MEAN_MOTION_DDOT":0}]