NOAA 15                 
1 25338U 98030A   22229.52808673  .00000134  00000+0  74277-4 0  9995
2 25338  98.6413 258.2558 0011472 117.2157 243.0194 14.26162005261973
NOAA 1 [-]              
1 04793U 70106A   22228.46516317 -.00000033  00000+0  65604-4 0  9997
2 04793 101.5527 290.7535 0031554 204.6964 166.1631 12.54006937365113
NOAA 2 (ITOS-D) [-]     
1 06235U 72082A   22228.76138890 -.00000033  00000+0  80423-4 0  9990
2 06235 101.9571 211.3793 0003928 326.0683 208.5447 12.53150378279528
NOAA 3 [-]              
1 06920U 73086A   22228.74135015 -.00000039  00000+0  48767-4 0  9991
2 06920 102.2110 210.4630 0006296 176.1576 357.2971 12.40347513208260
NOAA 4 [-]              
1 07529U 74089A   22228.74013068 -.00000036  00000+0  62571-4 0  9990
2 07529 101.9174 208.5626 0009102 351.6980 182.0193 12.53159213184099
NOAA 5 [-]              
1 09057U 76077A   22228.71703076 -.00000012  00000+0  25274-3 0  9991
2 09057 102.1023 196.0733 0010311  29.3718 145.9611 12.37772950 81196
TIROS N [-]             
1 11060U 78096A   22228.37805274  .00000069  00000+0  54200-4 0  9999
2 11060  98.6312 280.5203 0010017 336.7149  23.3572 14.18405178480105
NOAA 6 [-]              
1 11416U 79057A   22229.46543071  .00000174  00000+0  78747-4 0  9996
2 11416  98.6643 240.4155 0011528  80.1425 280.1060 14.33785146250476
NOAA 7 [-]              
1 12553U 81059A   22228.37683807  .00000010  00000+0  27603-4 0  9999
2 12553  98.9949 273.5245 0010646 308.7559  51.2663 14.17340043126287
NOAA 8 [-]              
1 13923U 83022A   22228.72045579  .00000067  00000+0  44215-4 0  9990
2 13923  98.6900 219.0382 0015837  36.8969 323.3299 14.28823416 51019
NOAA 9 [-]              
1 15427U 84123A   22229.50252146  .00000063  00000+0  55272-4 0  9992
2 15427  99.0501 202.8594 0014846 356.7875 112.1120 14.16215751945480
NOAA 10 [-]             
1 16969U 86073A   22229.48227927  .00000060  00000+0  41542-4 0  9998
2 16969  98.5717 214.5239 0013082 130.0045 342.0652 14.28213822869809
NOAA 11 [-]             
1 19531U 88089A   22228.71660748  .00000017  00000+0  29654-4 0  9994
2 19531  98.4280 214.4981 0011394  11.2428 348.9000 14.15317930749342
NOAA 12 [-]             
1 21263U 91032A   22228.90544314  .00000029  00000+0  29921-4 0  9992
2 21263  98.5163 227.0381 0014041 157.9159 202.2629 14.26004745625344
NOAA 13 [-]             
1 22739U 93050A   22229.42144445  .00000064  00000+0  56419-4 0  9993
2 22739  98.5090 206.1951 0009736 161.9343 198.2177 14.12855137495901
NOAA 14 [-]             
1 23455U 94089A   22228.83489159  .00000018  00000+0  30720-4 0  9996
2 23455  98.4458 252.2674 0010142 145.1122 215.0719 14.14204997425244
NOAA 16 [-]             
1 26536U 00055A   22228.85564216  .00000013  00000+0  29627-4 0  9998
2 26536  98.6320 285.6608 0010376 359.8545   0.2624 14.13338477425885
